{"type": "FeatureCollection", "features": [{"type": "Feature", "properties": {"name": "Central Park Attractions Network Route", "total_distance_m": 7950.311453221789, "total_distance_mi": 4.9401067849067255}, "geometry": {"type": "LineString", "coordinates": [[-73.97623605661151, 40.76570335481469], [-73.9761987, 40.7658146], [-73.9760902, 40.7657687], [-73.9760852, 40.7658017], [-73.976082, 40.7658595], [-73.976092, 40.7659575], [-73.9761231, 40.7660434], [-73.976149, 40.7660985], [-73.9760845, 40.7661509], [-73.9760524, 40.766173], [-73.9760531, 40.7662016], [-73.9760721, 40.7662312], [-73.9760875, 40.7662564], [-73.9761045, 40.7662821], [-73.9761127, 40.7663082], [-73.976065, 40.7663852], [-73.9760315, 40.7664588], [-73.9760194, 40.766494], [-73.9760166, 40.7665279], [-73.976013, 40.7665712], [-73.9760225, 40.7666414], [-73.9760369, 40.7667036], [-73.9760456, 40.7667409], [-73.9760585, 40.7667849], [-73.9759721, 40.7669091], [-73.9759414, 40.766979], [-73.9759304, 40.7670322], [-73.9759153, 40.7670921], [-73.9759007, 40.7671811], [-73.9758295, 40.7672388], [-73.9757602, 40.7672942], [-73.9756948, 40.7673261], [-73.9756273, 40.7673591], [-73.9754841, 40.7673984], [-73.9753997, 40.7673709], [-73.9753139, 40.7673424], [-73.975259, 40.7673248], [-73.975211, 40.7673099], [-73.9751409, 40.7672905], [-73.9750573, 40.7672743], [-73.9750145, 40.7672726], [-73.9749707, 40.7672839], [-73.9749244, 40.7672767], [-73.9748524, 40.7672709], [-73.9747683, 40.7672609], [-73.9746967, 40.7672504], [-73.9746563, 40.767245], [-73.9746128, 40.7672368], [-73.9745802, 40.7672267], [-73.9745466, 40.7672077], [-73.9745174, 40.7671844], [-73.9744939, 40.7671536], [-73.9744759, 40.7671229], [-73.9744642, 40.7670871], [-73.9744555, 40.7670472], [-73.9744387, 40.7669919], [-73.9744183, 40.7669518], [-73.9743933, 40.7669215], [-73.974361, 40.7668941], [-73.9743192, 40.7668765], [-73.9742604, 40.7668643], [-73.9741874, 40.7668567], [-73.9741353, 40.7668551], [-73.9740656, 40.7668551], [-73.9739491, 40.7668817], [-73.9738352990157, 40.76692577210475], [-73.9737118, 40.7669736], [-73.9736508, 40.766998], [-73.9735934, 40.7670179], [-73.9735205, 40.7670444], [-73.9734204, 40.7670925], [-73.9733792, 40.7670184], [-73.973364, 40.7669623], [-73.9733635, 40.7669215], [-73.973364, 40.7668537], [-73.973356, 40.7667653], [-73.9733415, 40.7667356], [-73.9733073, 40.7666827], [-73.9732737, 40.766686], [-73.9732292, 40.7666914], [-73.9731726, 40.7667034], [-73.9730985, 40.766724], [-73.9727706, 40.7668342], [-73.9727301, 40.7668467], [-73.972707, 40.7668517], [-73.9726763, 40.7668517], [-73.9726367, 40.766845], [-73.972606, 40.7668367], [-73.9725719, 40.7668218], [-73.9725258, 40.7667926], [-73.9724477, 40.7667028], [-73.9722223, 40.7666686], [-73.9722091, 40.7666937], [-73.9721959, 40.7667159], [-73.9716894, 40.7674278], [-73.9715822, 40.7675752], [-73.97147165102999, 40.76772097701813], [-73.9715822, 40.7675752], [-73.9716415, 40.7675767], [-73.9716729, 40.7675762], [-73.9717247, 40.7675187], [-73.9717666, 40.7674572], [-73.9718205, 40.7673853], [-73.9722952, 40.7675828], [-73.9722536, 40.7676301], [-73.9722951, 40.7677397], [-73.9723728, 40.7677726], [-73.9723907, 40.7677802], [-73.972613, 40.7678748], [-73.9727397, 40.7679237], [-73.972757, 40.7679249], [-73.9728715, 40.7679346], [-73.9729187, 40.7679367], [-73.9730372, 40.7679358], [-73.9733955, 40.7679327], [-73.973481, 40.7679313], [-73.9735194, 40.7679583], [-73.9735513, 40.7679708], [-73.973582, 40.7679841], [-73.9736122, 40.7680019], [-73.9737774, 40.7681226], [-73.9737921, 40.7681409], [-73.9737367, 40.768172], [-73.973718, 40.7681728], [-73.9736928, 40.7681703], [-73.9736587, 40.7681595], [-73.9736258, 40.7681554], [-73.9736005, 40.768157], [-73.9735621, 40.7681637], [-73.9735236, 40.768172], [-73.973483, 40.7681753], [-73.973449, 40.7681745], [-73.973427, 40.7681745], [-73.9733984, 40.7681687], [-73.9733633, 40.7681604], [-73.9733239, 40.7681455], [-73.9733108, 40.7682503], [-73.9732954, 40.768326], [-73.9732679, 40.7684316], [-73.9732419, 40.7685339], [-73.9732128, 40.7686312], [-73.9731927, 40.7687331], [-73.9731965, 40.7688134], [-73.973212, 40.7688605], [-73.9732558, 40.7688808], [-73.9732967, 40.7689049], [-73.973369, 40.7689423], [-73.9734338, 40.7689689], [-73.9735128, 40.7689922], [-73.973598, 40.7690137], [-73.9736177, 40.7690214], [-73.9737431786978, 40.76906549144861], [-73.9738522, 40.7691038], [-73.9738749, 40.7691161], [-73.974016, 40.7691868], [-73.974045, 40.7692044], [-73.9740411, 40.7692443], [-73.9740287, 40.7692674], [-73.9740054, 40.7692958], [-73.9739681, 40.7693382], [-73.9739194, 40.7694055], [-73.9738838, 40.7694628], [-73.9738711, 40.7695153], [-73.9738622, 40.7695899], [-73.9738643, 40.7696319], [-73.9738687, 40.7696551], [-73.9738786, 40.7696834], [-73.9738987, 40.769713], [-73.9739236, 40.7697367], [-73.9739609, 40.7697616], [-73.9740016, 40.7697832], [-73.9740357, 40.7697975], [-73.9740631, 40.769809], [-73.9741048, 40.7698173], [-73.9742177, 40.7698234], [-73.9742628, 40.7698827], [-73.9742767, 40.7699191], [-73.974285, 40.769953], [-73.9743566, 40.7700157], [-73.9743405, 40.770084], [-73.9743318, 40.7701364], [-73.9743405, 40.7701962], [-73.9743522, 40.7702529], [-73.9743889, 40.7703135], [-73.9744153, 40.770346], [-73.9744833, 40.7704083], [-73.9745399, 40.7704528], [-73.974591, 40.7704865], [-73.9746579, 40.770519], [-73.9747518, 40.7705493], [-73.9748315, 40.7705739], [-73.9749265, 40.770592], [-73.9750473, 40.7706092], [-73.9751875, 40.7706233], [-73.9753323, 40.7706387], [-73.9754157, 40.7706512], [-73.9755009, 40.770672], [-73.9755838, 40.7707027], [-73.9756638, 40.770756], [-73.9757222, 40.7708043], [-73.9757727, 40.7708421], [-73.9758402, 40.770882], [-73.9759394, 40.7709326], [-73.97595728479266, 40.770940093628205], [-73.9761005, 40.7710001], [-73.9762109, 40.7710529], [-73.9762648, 40.7710918], [-73.9763218, 40.7711457], [-73.9763531, 40.7711798], [-73.9764041, 40.7712397], [-73.9764404, 40.7712948], [-73.9764684, 40.7713378], [-73.9764882, 40.7713682], [-73.9765069, 40.7714048], [-73.9765261, 40.7714568], [-73.976547, 40.771515], [-73.9765703, 40.7715609], [-73.9766403, 40.7716239], [-73.9767331, 40.7716834], [-73.976856, 40.7717357], [-73.9769519, 40.77176], [-73.9769628, 40.7717628], [-73.9769979, 40.771774], [-73.9770261, 40.7717862], [-73.9769386, 40.7719055], [-73.9768413, 40.7720284], [-73.9767638, 40.7721461], [-73.9766518, 40.772326], [-73.9765981, 40.7724626], [-73.9765113, 40.7726682], [-73.9764521, 40.7728446], [-73.9763928, 40.7729896], [-73.9762674, 40.7732413], [-73.9761631, 40.7734531], [-73.9759708, 40.7738047], [-73.976052, 40.7738371], [-73.975938, 40.7739918], [-73.9757408, 40.7742462], [-73.9757032, 40.7742931], [-73.9756574, 40.7743444], [-73.9756123, 40.7743912], [-73.9755554, 40.7744413], [-73.9755007, 40.7744825], [-73.9754351, 40.7745261], [-73.9754029, 40.774642], [-73.9754013, 40.7746631], [-73.9754028, 40.7746875], [-73.9754069, 40.7747125], [-73.9754126, 40.7747419], [-73.9754304, 40.7747937], [-73.9755084, 40.7749978], [-73.9755463, 40.7751541], [-73.9755592, 40.7752037], [-73.9755669, 40.775254], [-73.9755732, 40.7753142], [-73.975573, 40.7753758], [-73.975569, 40.7754486], [-73.9755592, 40.7755157], [-73.975548, 40.7755768], [-73.9755288, 40.7756504], [-73.975504, 40.7757221], [-73.9754616, 40.7758257], [-73.9754491, 40.7758572], [-73.9754432, 40.7758844], [-73.9754423, 40.7759094], [-73.975445, 40.7759373], [-73.9754544, 40.775966], [-73.9754707, 40.77599], [-73.9754932, 40.7760156], [-73.9755147, 40.7760319], [-73.9755334, 40.7760426], [-73.9754705, 40.7760486], [-73.9754031, 40.7760582], [-73.9753611, 40.7760672], [-73.9753428, 40.7760532], [-73.9752996, 40.7760201], [-73.9752655, 40.7759895], [-73.9752417, 40.7759461], [-73.9752317641429, 40.77588603901771], [-73.9752261, 40.7758518], [-73.9751873, 40.7757852], [-73.9751463, 40.7757319], [-73.9750852, 40.7756605], [-73.9750708, 40.7756453], [-73.9750443, 40.7756135], [-73.9750248, 40.7755956], [-73.9749919, 40.7755765], [-73.9749231, 40.7755415], [-73.9748462, 40.7755052], [-73.9747981, 40.7754833], [-73.9747555, 40.7754575], [-73.9747197, 40.775434], [-73.9746972, 40.7754081], [-73.9746801, 40.7753752], [-73.9746639, 40.7752988], [-73.9746537, 40.775247], [-73.974646, 40.7752041], [-73.9746366, 40.775167], [-73.9746281, 40.77514], [-73.9746188, 40.7751135], [-73.9746039, 40.7750838], [-73.9745779, 40.7750028], [-73.9745357, 40.7749748], [-73.9744615, 40.7748783], [-73.9744375, 40.7748407], [-73.9743928, 40.7747695], [-73.9744472, 40.77472], [-73.9744573, 40.77468], [-73.9744751, 40.7746184], [-73.9744433, 40.7746085], [-73.9743719, 40.7745926], [-73.9742997, 40.7745715], [-73.974219, 40.7745427], [-73.9741662, 40.7745221], [-73.9740994, 40.7744915], [-73.9740334, 40.7744563], [-73.9739597, 40.774411], [-73.9738906, 40.7743616], [-73.973844, 40.7743275], [-73.9737648, 40.7742552], [-73.9737184, 40.7742082], [-73.9737532, 40.7741837], [-73.9735909, 40.7740247], [-73.9735191, 40.7739689], [-73.9734294, 40.7739045], [-73.9733665, 40.7738642], [-73.9732885, 40.7738254], [-73.9732233, 40.7737966], [-73.9731437, 40.7737643], [-73.9730509, 40.7737328], [-73.9729578, 40.7737019], [-73.9729062, 40.7736549], [-73.9728642, 40.7736111], [-73.9728118, 40.7735435], [-73.9727552, 40.7734603], [-73.972735, 40.7734192], [-73.9727334, 40.7733745], [-73.9725981, 40.7733776], [-73.9725222, 40.7733836], [-73.9724441, 40.773344], [-73.9723825, 40.7731649], [-73.9722891, 40.7729542], [-73.9721718, 40.7727495], [-73.9722329, 40.7726723], [-73.9721693, 40.7725896], [-73.9721122, 40.7725297], [-73.9719999, 40.7724405], [-73.9718415, 40.7724157], [-73.9718274, 40.7724135], [-73.9717936, 40.7724029], [-73.9717253, 40.7723814], [-73.9715913, 40.7723523], [-73.97188380796926, 40.77160792454007], [-73.9715913, 40.7723523], [-73.9714626, 40.7726797], [-73.9713883, 40.7728689], [-73.9712242, 40.7732864], [-73.9711715, 40.7734205], [-73.9710901, 40.7736274], [-73.9710077, 40.7738653], [-73.9709457, 40.7740493], [-73.9709358, 40.7740639], [-73.9709195, 40.7740903], [-73.97089510448504, 40.77412741132392], [-73.9708936, 40.7741297], [-73.9708261, 40.7741241], [-73.9707591, 40.7741326], [-73.9706976, 40.7741544], [-73.9706402, 40.7741932], [-73.9706011, 40.7742435], [-73.9705841, 40.7743003], [-73.9705137, 40.774291], [-73.9704526, 40.7743043], [-73.9703625, 40.7743251], [-73.9701791, 40.7743933], [-73.9700632, 40.7744436], [-73.9699781, 40.7744948], [-73.9698572, 40.7745835], [-73.9697969, 40.7746187], [-73.9697396, 40.7746465], [-73.9696929, 40.774665], [-73.9696338, 40.7746784], [-73.9695465, 40.7746961], [-73.9694433, 40.774706], [-73.969362, 40.774706], [-73.9692469, 40.7746993], [-73.9691908, 40.7747136], [-73.9691376, 40.7747271], [-73.9688326, 40.7748863], [-73.9687093, 40.7747996], [-73.9686756, 40.7747759], [-73.9686348, 40.7747449], [-73.9685859, 40.7747142], [-73.9685449, 40.7746864], [-73.9684114, 40.7745962], [-73.9683494, 40.7745862], [-73.9681729, 40.7745529], [-73.9681042, 40.7745263], [-73.9680344, 40.7744736], [-73.9678974, 40.7743458], [-73.9678407, 40.774262], [-73.9677833, 40.7741937], [-73.9677466, 40.7741593], [-73.9676973, 40.7741276], [-73.9676386, 40.7742606], [-73.967601, 40.7743355], [-73.96756834190435, 40.77438557076449], [-73.967601, 40.7743355], [-73.9676386, 40.7742606], [-73.9676973, 40.7741276], [-73.9677466, 40.7741593], [-73.9677833, 40.7741937], [-73.9678407, 40.774262], [-73.9678974, 40.7743458], [-73.9680344, 40.7744736], [-73.9681042, 40.7745263], [-73.9681729, 40.7745529], [-73.9683494, 40.7745862], [-73.9684114, 40.7745962], [-73.9685449, 40.7746864], [-73.9685859, 40.7747142], [-73.9686348, 40.7747449], [-73.9686756, 40.7747759], [-73.9687093, 40.7747996], [-73.9688326, 40.7748863], [-73.9691376, 40.7747271], [-73.9691908, 40.7747136], [-73.9692469, 40.7746993], [-73.969362, 40.774706], [-73.9694433, 40.774706], [-73.9695465, 40.7746961], [-73.9696338, 40.7746784], [-73.9696929, 40.774665], [-73.9697396, 40.7746465], [-73.9697969, 40.7746187], [-73.9698572, 40.7745835], [-73.9699781, 40.7744948], [-73.9700632, 40.7744436], [-73.9701791, 40.7743933], [-73.9703625, 40.7743251], [-73.9704526, 40.7743043], [-73.9705137, 40.774291], [-73.9705841, 40.7743003], [-73.9705919, 40.7743616], [-73.9706252, 40.7744178], [-73.9706806, 40.7744628], [-73.9707521, 40.7744921], [-73.9708323, 40.7745023], [-73.9709126, 40.7744926], [-73.9709844, 40.7744638], [-73.9710403, 40.774419], [-73.971076, 40.7743601], [-73.9711149, 40.7744276], [-73.9711725, 40.7744865], [-73.9711966, 40.7745422], [-73.9712116, 40.7746007], [-73.9712186, 40.7746561], [-73.9712175, 40.7747044], [-73.9712032, 40.7747817], [-73.9711857, 40.7748524], [-73.9711618, 40.7749357], [-73.971134, 40.7750254], [-73.9711293, 40.7750928], [-73.9711426, 40.7751296], [-73.9711584, 40.7751572], [-73.971187, 40.775188], [-73.9712437, 40.7752303], [-73.9713723, 40.7753241], [-73.9714987, 40.7754205], [-73.9715913, 40.7755216], [-73.9716339, 40.7755882], [-73.97177669283754, 40.775766847618016], [-73.9719075, 40.7759305], [-73.9719116, 40.7759667], [-73.971912, 40.7759854], [-73.9719059, 40.7760237], [-73.9718897, 40.776057], [-73.9718711, 40.7760835], [-73.971857, 40.7760976], [-73.9718429, 40.7761116], [-73.9718064, 40.77614], [-73.9717893, 40.7761215], [-73.9717552, 40.7760846], [-73.9717265, 40.7760563], [-73.9716928, 40.7760346], [-73.9716756, 40.7760273], [-73.9716583, 40.7760199], [-73.9716218, 40.7760107], [-73.9715818, 40.7760033], [-73.9715319, 40.7759965], [-73.9714697, 40.7759911], [-73.9714227, 40.7759899], [-73.9713775, 40.7759938], [-73.9713271, 40.776002], [-73.9712842, 40.7760029], [-73.9712428, 40.7760454], [-73.9711959, 40.7760806], [-73.9711091, 40.7761367], [-73.9710415, 40.7761587], [-73.970981, 40.7761729], [-73.9709307, 40.7761897], [-73.9708942, 40.7762197], [-73.9708452, 40.7763048], [-73.970793, 40.7763519], [-73.9707191, 40.7764029], [-73.970698, 40.7763968], [-73.9706815, 40.7763984], [-73.9706622, 40.7764053], [-73.9706401, 40.7764146], [-73.9706222, 40.7764208], [-73.9706286, 40.7764314], [-73.9706296, 40.7764416], [-73.9706166, 40.7764708], [-73.970594, 40.7765001], [-73.9705524, 40.7765409], [-73.9705164, 40.7765703], [-73.9704732, 40.7766017], [-73.9704307, 40.7766284], [-73.9703791, 40.7766519], [-73.9703281, 40.776672], [-73.970272, 40.7766899], [-73.9702062, 40.7767041], [-73.9701521, 40.7767121], [-73.9702428, 40.7767934], [-73.9702655, 40.7768137], [-73.9702469, 40.7768198], [-73.9702161, 40.7768419], [-73.9701936, 40.7768664], [-73.9701617, 40.7769055], [-73.9701406, 40.7769292], [-73.9701247, 40.7769428], [-73.9701128, 40.7769487], [-73.9700933, 40.7769532], [-73.9700646, 40.7769519], [-73.9700278, 40.7769471], [-73.9699872, 40.7769456], [-73.9699548, 40.7769506], [-73.9699282, 40.7769601], [-73.9698946, 40.7769755], [-73.9699197, 40.7769904], [-73.9699335, 40.7770047], [-73.9699468, 40.7770196], [-73.9699663, 40.7770408], [-73.9699774, 40.7770664], [-73.9699963, 40.7770846], [-73.96999336751892, 40.77708657026073], [-73.9699963, 40.7770846], [-73.9700131, 40.7770975], [-73.970024, 40.7771021], [-73.9700564, 40.77712], [-73.9700862, 40.7771396], [-73.970123, 40.7771692], [-73.970151, 40.777202], [-73.9701587, 40.7772321], [-73.9701493, 40.7772836], [-73.9701395, 40.7773181], [-73.9701108, 40.7773854], [-73.9701012, 40.7774079], [-73.9701113, 40.7774091], [-73.9701496, 40.7774225], [-73.9701882, 40.7774479], [-73.9702273, 40.7774815], [-73.9702546, 40.7775084], [-73.9702665, 40.7775201], [-73.9702986, 40.7775596], [-73.9703654, 40.7776545], [-73.9703765, 40.7776751], [-73.9703995, 40.7777177], [-73.9704409, 40.7778028], [-73.9704497, 40.7778312], [-73.9704599, 40.7778471], [-73.9704789, 40.7778764], [-73.9705059, 40.7779028], [-73.9705452, 40.7779319], [-73.9706351, 40.7779876], [-73.9706626, 40.7780045], [-73.97069, 40.7780213], [-73.9706754, 40.778033], [-73.9705269, 40.7781491], [-73.9704598, 40.7782113], [-73.9704453, 40.778228], [-73.9704186, 40.7782592], [-73.9703781, 40.778314], [-73.9703634, 40.7783376], [-73.9703486, 40.7783612], [-73.9703195, 40.7784127], [-73.9702925, 40.7784733], [-73.9702685, 40.7785324], [-73.9702501, 40.7785911], [-73.9702273, 40.7786534], [-73.9701873, 40.7787438], [-73.9701676, 40.7787749], [-73.9701552, 40.7787948], [-73.9701017, 40.7788774], [-73.9700512, 40.7789456], [-73.9700291, 40.7789634], [-73.9699961, 40.7789726], [-73.9699818, 40.7789717], [-73.9699581, 40.7789602], [-73.9699364, 40.7789364], [-73.9698457, 40.7789593], [-73.9697764, 40.7789704], [-73.9697123, 40.7789727], [-73.9696679, 40.7789822], [-73.9696451, 40.7789764], [-73.9696336, 40.7789575], [-73.9696161, 40.7789365], [-73.9696016, 40.7789213], [-73.9695871, 40.7789062], [-73.9695595, 40.7789259], [-73.9695403, 40.7789421], [-73.9695211, 40.7789584], [-73.9694763, 40.7789923], [-73.9694351, 40.7790142], [-73.969418, 40.7790204], [-73.9693933, 40.7790309], [-73.9693618, 40.7790446], [-73.9693446, 40.7790521], [-73.9693162, 40.7790747], [-73.9693046, 40.7790849], [-73.9692704, 40.779115], [-73.9692076, 40.7791186], [-73.969145, 40.7791765], [-73.9691304, 40.7792041], [-73.969126, 40.7792296], [-73.9691191, 40.7792573], [-73.9690887, 40.7792988], [-73.9690435, 40.7793604], [-73.9689653, 40.7793276], [-73.96890238881316, 40.77930107772987], [-73.9689653, 40.7793276], [-73.9690435, 40.7793604], [-73.9691308, 40.7793971], [-73.9691104, 40.7794249], [-73.9691904, 40.7794586], [-73.969175, 40.7794796], [-73.9691191, 40.7795558], [-73.9691642, 40.7795748], [-73.9692301, 40.779603], [-73.96929, 40.7796393], [-73.9693454, 40.7796819], [-73.9694086, 40.7797416], [-73.9694667, 40.7797836], [-73.9695291, 40.7798224], [-73.969605, 40.7797304], [-73.9696224, 40.7797185], [-73.9696574, 40.7797366], [-73.9696877, 40.779752], [-73.9697054, 40.7797618], [-73.9697314, 40.7797776], [-73.9697423, 40.7797831], [-73.9697514, 40.779788], [-73.9697605, 40.7797903], [-73.969767, 40.7797897], [-73.9697747, 40.7797851], [-73.9697804, 40.7797792], [-73.969783, 40.779773], [-73.9697834, 40.7797651], [-73.9697838, 40.7797575], [-73.9697838, 40.77975], [-73.9697843, 40.7797425], [-73.9697877, 40.7797356], [-73.9697903, 40.7797306], [-73.9697938, 40.779727], [-73.9697994, 40.7797224], [-73.9698068, 40.7797198], [-73.9698137, 40.7797179], [-73.9698228, 40.7797179], [-73.9698302, 40.7797211], [-73.9698397, 40.779729], [-73.9698687, 40.779768], [-73.9698765, 40.7797782], [-73.9698796, 40.7797874], [-73.9698813, 40.7797949], [-73.9698809, 40.7798012], [-73.9698744, 40.7798081], [-73.9698618, 40.7798156], [-73.969851, 40.7798225], [-73.9698354, 40.779833], [-73.9698276, 40.7798409], [-73.969822, 40.7798507], [-73.9698172, 40.7798589], [-73.9698185, 40.7798661], [-73.9698246, 40.7798737], [-73.9698247395862, 40.779873784965524], [-73.9698246, 40.7798737], [-73.9698185, 40.7798661], [-73.9698172, 40.7798589], [-73.969822, 40.7798507], [-73.9698276, 40.7798409], [-73.9698354, 40.779833], [-73.969851, 40.7798225], [-73.9698618, 40.7798156], [-73.9698744, 40.7798081], [-73.9698809, 40.7798012], [-73.9698813, 40.7797949], [-73.9698796, 40.7797874], [-73.9698765, 40.7797782], [-73.9698687, 40.779768], [-73.9698397, 40.779729], [-73.9698302, 40.7797211], [-73.9698228, 40.7797179], [-73.9698137, 40.7797179], [-73.9698068, 40.7797198], [-73.9697994, 40.7797224], [-73.9697938, 40.779727], [-73.9697903, 40.7797306], [-73.9697877, 40.7797356], [-73.9697843, 40.7797425], [-73.9697838, 40.77975], [-73.9697838, 40.7797575], [-73.9697834, 40.7797651], [-73.969783, 40.779773], [-73.9697804, 40.7797792], [-73.9697747, 40.7797851], [-73.969767, 40.7797897], [-73.9697605, 40.7797903], [-73.9697514, 40.779788], [-73.9697423, 40.7797831], [-73.9697314, 40.7797776], [-73.9697054, 40.7797618], [-73.9696877, 40.779752], [-73.9696574, 40.7797366], [-73.9696224, 40.7797185], [-73.969605, 40.7797304], [-73.9695291, 40.7798224], [-73.9695187, 40.7798453], [-73.9694883, 40.7798997], [-73.9694753, 40.7799332], [-73.9694607, 40.779981], [-73.9694468, 40.780027], [-73.9694398, 40.7800736], [-73.9694407, 40.780105], [-73.9694476, 40.7801365], [-73.9694772, 40.7801641], [-73.9694699, 40.7801792], [-73.9694634, 40.7801897], [-73.9693805, 40.7803236], [-73.9692836, 40.7804942], [-73.9692033, 40.7805819], [-73.9691436, 40.7806403], [-73.9690655, 40.7806743], [-73.9689925, 40.780647], [-73.9689105, 40.7806147], [-73.9688134, 40.7805755], [-73.9687042, 40.7805417], [-73.9686195, 40.7805216], [-73.9685339, 40.7805067], [-73.9684488, 40.7804999], [-73.9683356, 40.7804937], [-73.9683088, 40.7804932], [-73.9682248, 40.7804916], [-73.9680884, 40.7805052], [-73.9679417, 40.7805326], [-73.96786429372399, 40.78043958064332], [-73.9677538, 40.7803068], [-73.9675766, 40.7801792], [-73.96737, 40.7800878], [-73.9671842, 40.7800392], [-73.9670766, 40.7800287], [-73.9669783, 40.7800234], [-73.9668951, 40.7800232], [-73.9668102, 40.7800299], [-73.966747, 40.7800398], [-73.966587, 40.7800716], [-73.9663756, 40.7801278], [-73.9661718, 40.7801925], [-73.9659336, 40.7803097], [-73.9657717, 40.7804335], [-73.9655656, 40.7806452], [-73.9654528, 40.7808072], [-73.9653635, 40.7809486], [-73.9652738, 40.7811234], [-73.9651916, 40.7813136], [-73.9651045, 40.7813346], [-73.9650491, 40.7813425], [-73.9649679, 40.7813435], [-73.9648602, 40.7813268], [-73.9647418, 40.7812903], [-73.9645873, 40.7813878], [-73.9644589, 40.7814524], [-73.9643402, 40.7814912], [-73.9641954, 40.7815354], [-73.9641274, 40.7815498], [-73.9640611, 40.7815737], [-73.9639905, 40.7815695], [-73.9639319, 40.7815651], [-73.9638744, 40.7815459], [-73.96383, 40.7815211], [-73.9637501, 40.7814834], [-73.9636667, 40.7814247], [-73.9635983, 40.7814555], [-73.9635167, 40.7814913], [-73.9634313, 40.7815216], [-73.9633422, 40.7815497], [-73.9633042, 40.7815637], [-73.9632717, 40.7815757], [-73.9632494, 40.7815869], [-73.9632327, 40.7815974], [-73.9632207, 40.7816052], [-73.9632095, 40.7816143], [-73.9631984, 40.7816199], [-73.9631873, 40.7816241], [-73.9631752, 40.7816255], [-73.9631603, 40.7816263], [-73.963139, 40.7816263], [-73.9631223, 40.7816255], [-73.963101, 40.7816248], [-73.9630833, 40.7816241], [-73.9630629, 40.7816241], [-73.9630453, 40.7816248], [-73.9630286, 40.7816284], [-73.9630063, 40.781634], [-73.9629097, 40.7816777], [-73.962733, 40.7819094], [-73.9626317, 40.7820426], [-73.962607, 40.7820736], [-73.9625382, 40.7821629], [-73.9623136, 40.7820714], [-73.9622218, 40.7820444], [-73.9621374, 40.7820256], [-73.9620564, 40.7820083], [-73.9619602, 40.7819975], [-73.961865, 40.7819894], [-73.9617644, 40.7819884], [-73.9616775, 40.7819926], [-73.9615686, 40.7820017], [-73.9614663, 40.7820163], [-73.9613664, 40.7820403], [-73.9612746, 40.7820677], [-73.9611261, 40.782125], [-73.9610305, 40.7821767], [-73.96094, 40.7822318], [-73.9608335, 40.7823201], [-73.9607595, 40.7823867], [-73.96072, 40.7824357], [-73.9604849, 40.7827591], [-73.9602325, 40.7831069], [-73.9597219, 40.783803], [-73.9592853, 40.784416], [-73.95928317293799, 40.784418986481015], [-73.9592853, 40.784416], [-73.9592233, 40.7843891], [-73.9591496, 40.7844825], [-73.9591067, 40.7845353], [-73.9590731, 40.7845353], [-73.9590597, 40.7845089], [-73.9590272, 40.7844264], [-73.9588627, 40.784345], [-73.9587975, 40.7843176], [-73.9587564, 40.7843003], [-73.9587244, 40.7842788], [-73.9586029, 40.7842292], [-73.9582477, 40.7847128], [-73.9581637, 40.7848271], [-73.9577855, 40.7853421], [-73.9577072, 40.7854487], [-73.9573315, 40.7859603], [-73.9572426, 40.7860813], [-73.95687, 40.7865886], [-73.9567898, 40.7866978], [-73.9564117, 40.7872125], [-73.9563443, 40.7873043], [-73.9559729, 40.7878099], [-73.9559293, 40.7878693], [-73.9558808, 40.7879439], [-73.9558259, 40.7880284], [-73.955428, 40.7885775], [-73.9553824, 40.7886361], [-73.9553345, 40.7886975], [-73.9552295, 40.7888409], [-73.9549615, 40.7892069], [-73.954888, 40.7893074], [-73.9545076, 40.7898269], [-73.9544597, 40.7898923], [-73.953585, 40.7910869], [-73.9535155, 40.791182], [-73.9531306, 40.7917076], [-73.9530847, 40.7917683], [-73.953042, 40.7918248], [-73.953192, 40.7918984], [-73.9533793, 40.7920058], [-73.9534296, 40.7920318], [-73.9534551, 40.7920466], [-73.9534797, 40.7920655], [-73.9535076, 40.792096], [-73.9535381, 40.7921384], [-73.9535807, 40.7921991], [-73.9535262, 40.7922331], [-73.9534832, 40.7922584], [-73.9534429, 40.7923041], [-73.9534202, 40.7923401], [-73.9534008, 40.7923731], [-73.9533944, 40.7924231], [-73.9533911, 40.7924515], [-73.9533745, 40.7924811], [-73.9533527, 40.7925072], [-73.9533246, 40.7925364], [-73.9532728, 40.7925699], [-73.9532236, 40.7925982], [-73.9531555, 40.7926013], [-73.9530567, 40.7926089], [-73.9529613, 40.7926267], [-73.9528743, 40.7926533], [-73.9528207, 40.7926812], [-73.9527807, 40.7927428], [-73.9527724, 40.7927776], [-73.9527795, 40.7928072], [-73.9527932, 40.7928404], [-73.9528178, 40.7928756], [-73.9528193, 40.7928807], [-73.9528717, 40.7928899], [-73.9529303, 40.7929055], [-73.9529836, 40.7929322], [-73.9530226, 40.7929582], [-73.9530748, 40.7930081], [-73.9530765, 40.7930106], [-73.9530842, 40.7930218], [-73.9530904, 40.7930309], [-73.9530941, 40.7930362], [-73.9531094, 40.7930667], [-73.9531248, 40.7931234], [-73.9531261, 40.7931752], [-73.9531176, 40.7932216], [-73.9531017, 40.7932637], [-73.9530826, 40.793295], [-73.9530635, 40.793321], [-73.9530093, 40.7933947], [-73.9530047, 40.7934186], [-73.9530196, 40.7935002], [-73.9530584, 40.7935941], [-73.9529982, 40.7936756], [-73.952938, 40.7937582], [-73.9528627, 40.7938603], [-73.9528805, 40.7938745], [-73.9528916, 40.7938921], [-73.9528949, 40.7939115], [-73.9528899, 40.7939308], [-73.9528773, 40.7939478], [-73.9528583, 40.7939611], [-73.9528348, 40.7939692], [-73.9528091, 40.7939713], [-73.9527838, 40.7939672], [-73.9527109, 40.7940685], [-73.9526604, 40.7941413], [-73.9525822, 40.7942386], [-73.9524827, 40.7942424], [-73.9524274, 40.7942589], [-73.9523839, 40.7942741], [-73.9523421, 40.794307], [-73.9522803, 40.7943914], [-73.9522604, 40.794423], [-73.952233, 40.7944821], [-73.9522293, 40.7945179], [-73.9522308, 40.7945442], [-73.9522449, 40.7946083], [-73.9522649, 40.7946646], [-73.9522793, 40.7946861], [-73.9524039, 40.7948592], [-73.9524542, 40.794925], [-73.9525169, 40.79499], [-73.952562, 40.7950262], [-73.95266, 40.7950878], [-73.9527335, 40.7951322], [-73.9527812, 40.7951695], [-73.9528254, 40.795212], [-73.9528581, 40.7952549], [-73.9528853, 40.7953], [-73.9528549, 40.7953162], [-73.9528128, 40.7953392], [-73.9527674, 40.7953578], [-73.9527306, 40.7953654], [-73.9526797, 40.7953814], [-73.9526301, 40.7953953], [-73.952566, 40.7954141], [-73.9525199, 40.7954317], [-73.9524816, 40.7954462], [-73.9525241, 40.7955286], [-73.9525536, 40.7956011], [-73.952558, 40.7956191], [-73.9525597, 40.7956461], [-73.9525615, 40.7956721], [-73.9525598, 40.7957033], [-73.9525536, 40.7957315], [-73.9525485, 40.7957566], [-73.952539, 40.7957929], [-73.952528, 40.7958231], [-73.9524941, 40.7958419], [-73.9524708, 40.7958571], [-73.9524442, 40.79588], [-73.9524079, 40.7959117], [-73.9523831, 40.7959365], [-73.9523622, 40.7959639], [-73.9523448, 40.7959984], [-73.9523406, 40.7960197], [-73.952339, 40.7960279], [-73.9523422, 40.7960665], [-73.95235, 40.7961033], [-73.9523678, 40.7961378], [-73.9523947, 40.7961887], [-73.9524197, 40.7961939], [-73.9523338, 40.7963492], [-73.9523547, 40.7963671], [-73.9523692, 40.7963912], [-73.9523735, 40.7964174], [-73.9523722, 40.7964516], [-73.9523552, 40.7964882], [-73.9523224, 40.7965208], [-73.9522773, 40.7965552], [-73.9522324, 40.7965928], [-73.9521985, 40.7966244], [-73.9521757, 40.7966634], [-73.9521578, 40.7967072], [-73.9521549, 40.7967527], [-73.9521562, 40.7967847], [-73.9521603, 40.7968041], [-73.9521733, 40.7968384], [-73.9521959, 40.7968771], [-73.95220139999999, 40.796882599999996]]}}]}