{"type": "FeatureCollection", "features": [{"id": "0", "type": "Feature", "properties": {"label": "Central Park Entry", "order": 0}, "geometry": {"type": "Point", "coordinates": [-73.976235, 40.765703]}}, {"id": "1", "type": "Feature", "properties": {"label": "Gapstow Bridge", "order": 1}, "geometry": {"type": "Point", "coordinates": [-73.973835, 40.766925]}}, {"id": "2", "type": "Feature", "properties": {"label": "Central Park Zoo - 830 5th Avenue, New York, New York 10023, United States", "order": 2}, "geometry": {"type": "Point", "coordinates": [-73.971473, 40.767722]}}, {"id": "3", "type": "Feature", "properties": {"label": "Dairy Visitor Center", "order": 3}, "geometry": {"type": "Point", "coordinates": [-73.973743, 40.769066]}}, {"id": "4", "type": "Feature", "properties": {"label": "Sheep Meadow", "order": 4}, "geometry": {"type": "Point", "coordinates": [-73.975959, 40.770936]}}, {"id": "5", "type": "Feature", "properties": {"label": "Strawberry Fields", "order": 5}, "geometry": {"type": "Point", "coordinates": [-73.975232, 40.775886]}}, {"id": "6", "type": "Feature", "properties": {"label": "The Mall and Literary Walk", "order": 6}, "geometry": {"type": "Point", "coordinates": [-73.971884, 40.771608]}}, {"id": "7", "type": "Feature", "properties": {"label": "Bethesda Terrace & Fountain", "order": 7}, "geometry": {"type": "Point", "coordinates": [-73.970896, 40.774128]}}, {"id": "8", "type": "Feature", "properties": {"label": "Conservatory Water", "order": 8}, "geometry": {"type": "Point", "coordinates": [-73.967569, 40.774386]}}, {"id": "9", "type": "Feature", "properties": {"label": "Bow Bridge", "order": 9}, "geometry": {"type": "Point", "coordinates": [-73.971774, 40.775769]}}, {"id": "10", "type": "Feature", "properties": {"label": "The Ramble", "order": 10}, "geometry": {"type": "Point", "coordinates": [-73.969995, 40.777089]}}, {"id": "11", "type": "Feature", "properties": {"label": "Belvedere Castle", "order": 11}, "geometry": {"type": "Point", "coordinates": [-73.968902, 40.779302]}}, {"id": "12", "type": "Feature", "properties": {"label": "Shakespeare Garden", "order": 12}, "geometry": {"type": "Point", "coordinates": [-73.969824, 40.779875]}}, {"id": "13", "type": "Feature", "properties": {"label": "The Great Lawn", "order": 13}, "geometry": {"type": "Point", "coordinates": [-73.967871, 40.780434]}}, {"id": "14", "type": "Feature", "properties": {"label": "The Reservoir", "order": 14}, "geometry": {"type": "Point", "coordinates": [-73.959286, 40.784421]}}, {"id": "15", "type": "Feature", "properties": {"label": "Conservatory Garden", "order": 15}, "geometry": {"type": "Point", "coordinates": [-73.95274, 40.793879]}}, {"id": "16", "type": "Feature", "properties": {"label": "Harlem Meer", "order": 16}, "geometry": {"type": "Point", "coordinates": [-73.952202, 40.796882]}}]}